[{"OBJECT_NAME":"PERSEUS-M1","OBJECT_ID":"2014-033AF","EPOCH":"2026-03-09T17:46:59.181600","MEAN_MOTION":14.95254642,"ECCENTRICITY":0.00100578,"INCLINATION":97.9555,"RA_OF_ASC_NODE":11.3245,"ARG_OF_PERICENTER":268.322,"MEAN_ANOMALY":91.6848,"EPHEMERIS_TYPE":0,"CLASSIFICATION_TYPE":"U","NORAD_CAT_ID":40039,"ELEMENT_SET_NO":999,"REV_AT_EPOCH":63577,"BSTAR":0.00021947731,"MEAN_MOTION_DOT":2.357e-5,"MEAN_MOTION_DDOT":0},{"OBJECT_NAME":"ICEYE-X54","OBJECT_ID":"2025-135AU","EPOCH":"2026-03-09T21:59:41.591040","MEAN_MOTION":14.93897113,"ECCENTRICITY":9.94e-5,"INCLINATION":97.759,"RA_OF_ASC_NODE":184.427,"ARG_OF_PERICENTER":275.8004,"MEAN_ANOMALY":84.3103,"EPHEMERIS_TYPE":0,"CLASSIFICATION_TYPE":"U","NORAD_CAT_ID":64570,"ELEMENT_SET_NO":999,"REV_AT_EPOCH":3907,"BSTAR":0.00047614283,"MEAN_MOTION_DOT":5.007e-5,"MEAN_MOTION_DDOT":0}]
